[{"OBJECT_NAME":"STARLINK-36192","OBJECT_ID":"2025-293X","EPOCH":"2026-03-09T11:16:31.149408","MEAN_MOTION":14.98335756,"ECCENTRICITY":0.00029021,"INCLINATION":70.0008,"RA_OF_ASC_NODE":95.0593,"ARG_OF_PERICENTER":267.4893,"MEAN_ANOMALY":92.5933,"EPHEMERIS_TYPE":0,"CLASSIFICATION_TYPE":"U","NORAD_CAT_ID":67024,"ELEMENT_SET_NO":999,"REV_AT_EPOCH":1485,"BSTAR":0.00021542102,"MEAN_MOTION_DOT":2.479e-5,"MEAN_MOTION_DDOT":0},{"OBJECT_NAME":"CZ-6A DEB","OBJECT_ID":"2024-140NJ","EPOCH":"2026-03-09T15:30:01.982592","MEAN_MOTION":15.1004937,"ECCENTRICITY":0.00567225,"INCLINATION":88.9288,"RA_OF_ASC_NODE":275.3548,"ARG_OF_PERICENTER":176.1403,"MEAN_ANOMALY":184.0287,"EPHEMERIS_TYPE":0,"CLASSIFICATION_TYPE":"U","NORAD_CAT_ID":61092,"ELEMENT_SET_NO":999,"REV_AT_EPOCH":8278,"BSTAR":0.0051635532,"MEAN_MOTION_DOT":0.00088127,"MEAN_MOTION_DDOT":0}]
